GLOBALSTAR M063         
1 26081U 00008A   25160.68444380 -.00000083  00000+0 -23041-5 0  9993
2 26081  51.9929 131.3308 0004787 305.5778 225.9880 11.86174863156689
GLOBALSTAR M062         
1 26082U 00008B   25159.62652714 -.00000091  00000+0  49195-4 0  9993
2 26082  51.9832 120.9555 0007153  90.4660  80.6371 12.43468120495550
GLOBALSTAR M060         
1 26083U 00008C   25160.92565531  .00000069  00000+0  15900-2 0  9998
2 26083  52.0026  76.1153 0003494 100.5516 337.6900 12.17662463151482
GLOBALSTAR M064         
1 26084U 00008D   25159.64947161 -.00000060  00000+0  33785-3 0  9993
2 26084  52.0016 232.9869 0001186  57.5317 302.5630 11.88534634166082
GLOBALSTAR M065         
1 31571U 07020A   25160.72418152 -.00000077  00000+0  14837-3 0  9990
2 31571  51.9889 248.9839 0009696 291.2213 232.3317 12.62008779832468
GLOBALSTAR M069         
1 31573U 07020C   25160.58993859 -.00000049  00000+0  39910-3 0  9996
2 31573  51.9935 226.7408 0001686 143.9765   2.1544 12.23446152833121
GLOBALSTAR M072         
1 31574U 07020D   25160.88887918 -.00000072  00000+0  16629-3 0  9996
2 31574  51.9957  11.3993 0000823   1.5579 100.3915 11.91649516830591
